$$SOE
2459580.500000000, A.D. 2022-Jan-01 00:00:00.0000, 5.770023320216557E+09, 2.979435043003795E+09, -2.608953985185887E+08,
2459587.500000000, A.D. 2022-Jan-08 00:00:00.0000, 5.768874395846526E+09, 2.981899820466878E+09, -2.609864606258575E+08,
2459594.500000000, A.D. 2022-Jan-15 00:00:00.0000, 5.767724369549499E+09, 2.984364085171382E+09, -2.610774749578942E+08,
2459601.500000000, A.D. 2022-Jan-22 00:00:00.0000, 5.766573245496094E+09, 2.986827835211459E+09, -2.611684418769965E+08,
2459608.500000000, A.D. 2022-Jan-29 00:00:00.0000, 5.765421028436122E+09, 2.989291071157763E+09, -2.612593616383399E+08,
2459615.500000000, A.D. 2022-Feb-05 00:00:00.0000, 5.764267721491500E+09, 2.991753795385792E+09, -2.613502342422123E+08,
2459622.500000000, A.D. 2022-Feb-12 00:00:00.0000, 5.763113326122508E+09, 2.994216010335968E+09, -2.614410595712955E+08,
2459629.500000000, A.D. 2022-Feb-19 00:00:00.0000, 5.761957842942569E+09, 2.996677718074473E+09, -2.615318374979911E+08,
2459636.500000000, A.D. 2022-Feb-26 00:00:00.0000, 5.760801272070214E+09, 2.999138920431850E+09, -2.616225679007764E+08,
2459643.500000000, A.D. 2022-Mar-05 00:00:00.0000, 5.759643613177507E+09, 3.001599619102477E+09, -2.617132506548592E+08,
2459650.500000000, A.D. 2022-Mar-12 00:00:00.0000, 5.758484865456716E+09, 3.004059815639299E+09, -2.618038856231433E+08,
2459657.500000000, A.D. 2022-Mar-19 00:00:00.0000, 5.757325027576328E+09, 3.006519511371998E+09, -2.618944726520258E+08,
2459664.500000000, A.D. 2022-Mar-26 00:00:00.0000, 5.756164097648803E+09, 3.008978707242832E+09, -2.619850115748585E+08,
2459671.500000000, A.D. 2022-Apr-02 00:00:00.0000, 5.755002073277826E+09, 3.011437403504547E+09, -2.620755022341233E+08,
2459678.500000000, A.D. 2022-Apr-09 00:00:00.0000, 5.753838951957194E+09, 3.013895599285417E+09, -2.621659445470996E+08,
2459685.500000000, A.D. 2022-Apr-16 00:00:00.0000, 5.752674732178382E+09, 3.016353292675689E+09, -2.622563385945188E+08,
2459692.500000000, A.D. 2022-Apr-23 00:00:00.0000, 5.751509413977980E+09, 3.018810482419913E+09, -2.623466845273417E+08,
2459699.500000000, A.D. 2022-Apr-30 00:00:00.0000, 5.750342997054816E+09, 3.021267168970029E+09, -2.624369823036960E+08,
2459706.500000000, A.D. 2022-May-07 00:00:00.0000, 5.749175479519511E+09, 3.023723352925797E+09, -2.625272316982441E+08,
2459713.500000000, A.D. 2022-May-14 00:00:00.0000, 5.748006858665829E+09, 3.026179033900799E+09, -2.626174324631710E+08,
2459720.500000000, A.D. 2022-May-21 00:00:00.0000, 5.746837131732768E+09, 3.028634210572870E+09, -2.627075843925114E+08,
2459727.500000000, A.D. 2022-May-28 00:00:00.0000, 5.745666296178587E+09, 3.031088880960211E+09, -2.627976873242148E+08,
2459734.500000000, A.D. 2022-Jun-04 00:00:00.0000, 5.744494349743874E+09, 3.033543042610480E+09, -2.628877411309241E+08,
2459741.500000000, A.D. 2022-Jun-11 00:00:00.0000, 5.743321290448382E+09, 3.035996692705199E+09, -2.629777457125065E+08,
2459748.500000000, A.D. 2022-Jun-18 00:00:00.0000, 5.742147116560355E+09, 3.038449828092937E+09, -2.630677009927438E+08,
2459755.500000000, A.D. 2022-Jun-25 00:00:00.0000, 5.740971826567800E+09, 3.040902445218345E+09, -2.631576069255127E+08,
2459762.500000000, A.D. 2022-Jul-02 00:00:00.0000, 5.739795419285816E+09, 3.043354539881563E+09, -2.632474635280224E+08,
2459769.500000000, A.D. 2022-Jul-09 00:00:00.0000, 5.738617894490259E+09, 3.045806107005172E+09, -2.633372709623092E+08,
2459776.500000000, A.D. 2022-Jul-16 00:00:00.0000, 5.737439254022603E+09, 3.048257141491684E+09, -2.634270295712966E+08,
2459783.500000000, A.D. 2022-Jul-23 00:00:00.0000, 5.736259501167617E+09, 3.050707640249392E+09, -2.635167396612306E+08,
2459790.500000000, A.D. 2022-Jul-30 00:00:00.0000, 5.735078638387942E+09, 3.053157602032649E+09, -2.636064013120711E+08,
2459797.500000000, A.D. 2022-Aug-06 00:00:00.0000, 5.733896667014325E+09, 3.055607025744802E+09, -2.636960144927545E+08,
2459804.500000000, A.D. 2022-Aug-13 00:00:00.0000, 5.732713588068346E+09, 3.058055909958149E+09, -2.637855791804698E+08,
2459811.500000000, A.D. 2022-Aug-20 00:00:00.0000, 5.731529402648252E+09, 3.060504253147582E+09, -2.638750953808966E+08,
2459818.500000000, A.D. 2022-Aug-27 00:00:00.0000, 5.730344111946083E+09, 3.062952053911320E+09, -2.639645631148012E+08,
2459825.500000000, A.D. 2022-Sep-03 00:00:00.0000, 5.729157717143968E+09, 3.065399311068199E+09, -2.640539824025831E+08,
2459832.500000000, A.D. 2022-Sep-10 00:00:00.0000, 5.727970219279737E+09, 3.067846023655434E+09, -2.641433532529509E+08,
2459839.500000000, A.D. 2022-Sep-17 00:00:00.0000, 5.726781619111227E+09, 3.070292190825114E+09, -2.642326756585202E+08,
2459846.500000000, A.D. 2022-Sep-24 00:00:00.0000, 5.725591917039728E+09, 3.072737811588550E+09, -2.643219496080588E+08,
2459853.500000000, A.D. 2022-Oct-01 00:00:00.0000, 5.724401113332555E+09, 3.075182884386180E+09, -2.644111751393231E+08,
2459860.500000000, A.D. 2022-Oct-08 00:00:00.0000, 5.723209209052041E+09, 3.077627407005118E+09, -2.645003524273716E+08,
2459867.500000000, A.D. 2022-Oct-15 00:00:00.0000, 5.722016206759122E+09, 3.080071378043510E+09, -2.645894817251154E+08,
2459874.500000000, A.D. 2022-Oct-22 00:00:00.0000, 5.720822108809911E+09, 3.082514798237816E+09, -2.646785630938730E+08,
2459881.500000000, A.D. 2022-Oct-29 00:00:00.0000, 5.719626915743110E+09, 3.084957669059538E+09, -2.647675963652754E+08,
2459888.500000000, A.D. 2022-Nov-05 00:00:00.0000, 5.718430626857522E+09, 3.087399991322528E+09, -2.648565813033457E+08,
2459895.500000000, A.D. 2022-Nov-12 00:00:00.0000, 5.717233241014903E+09, 3.089841765068101E+09, -2.649455176832025E+08,
2459902.500000000, A.D. 2022-Nov-19 00:00:00.0000, 5.716034756948720E+09, 3.092282989773854E+09, -2.650344052985817E+08,
2459909.500000000, A.D. 2022-Nov-26 00:00:00.0000, 5.714835173341072E+09, 3.094723664488838E+09, -2.651232439548354E+08,
2459916.500000000, A.D. 2022-Dec-03 00:00:00.0000, 5.713634488833786E+09, 3.097163787883577E+09, -2.652120334636858E+08,
2459923.500000000, A.D. 2022-Dec-10 00:00:00.0000, 5.712432702019226E+09, 3.099603358233606E+09, -2.653007736424234E+08,
2459930.500000000, A.D. 2022-Dec-17 00:00:00.0000, 5.711229811435530E+09, 3.102042373311551E+09, -2.653894643218813E+08,
2459937.500000000, A.D. 2022-Dec-24 00:00:00.0000, 5.710025815675645E+09, 3.104480830121905E+09, -2.654781053785721E+08,
2459944.500000000, A.D. 2022-Dec-31 00:00:00.0000, 5.708820713967840E+09, 3.106918724586021E+09, -2.655666968149619E+08,
2459951.500000000, A.D. 2023-Jan-07 00:00:00.0000, 5.707614507350359E+09, 3.109356052139709E+09, -2.656552388204449E+08,
2459958.500000000, A.D. 2023-Jan-14 00:00:00.0000, 5.706407198473237E+09, 3.111792809740236E+09, -2.657437315919152E+08,
2459965.500000000, A.D. 2023-Jan-21 00:00:00.0000, 5.705198789382499E+09, 3.114228996110122E+09, -2.658321751140049E+08,
2459972.500000000, A.D. 2023-Jan-28 00:00:00.0000, 5.703989280954775E+09, 3.116664610022200E+09, -2.659205692513291E+08,
2459979.500000000, A.D. 2023-Feb-04 00:00:00.0000, 5.702778673773754E+09, 3.119099649653727E+09, -2.660089138861027E+08,
2459986.500000000, A.D. 2023-Feb-11 00:00:00.0000, 5.701566968653284E+09, 3.121534112815964E+09, -2.660972089521786E+08,
2459993.500000000, A.D. 2023-Feb-18 00:00:00.0000, 5.700354166743917E+09, 3.123967997236242E+09, -2.661854544268671E+08,
2460000.500000000, A.D. 2023-Feb-25 00:00:00.0000, 5.699140269485812E+09, 3.126401300730841E+09, -2.662736503177208E+08,
2460007.500000000, A.D. 2023-Mar-04 00:00:00.0000, 5.697925278510360E+09, 3.128834021287752E+09, -2.663617966519598E+08,
2460014.500000000, A.D. 2023-Mar-11 00:00:00.0000, 5.696709195519317E+09, 3.131266157060069E+09, -2.664498934709485E+08,
2460021.500000000, A.D. 2023-Mar-18 00:00:00.0000, 5.695492022188726E+09, 3.133697706220743E+09, -2.665379408378593E+08,
2460028.500000000, A.D. 2023-Mar-25 00:00:00.0000, 5.694273760301133E+09, 3.136128666631777E+09, -2.666259388808262E+08,
2460035.500000000, A.D. 2023-Apr-01 00:00:00.0000, 5.693054412530783E+09, 3.138559035721457E+09, -2.667138878781493E+08,
2460042.500000000, A.D. 2023-Apr-08 00:00:00.0000, 5.691833983266591E+09, 3.140988811794814E+09, -2.668017882287989E+08,
2460049.500000000, A.D. 2023-Apr-15 00:00:00.0000, 5.690612477135992E+09, 3.143417995671307E+09, -2.668896401840805E+08,
2460056.500000000, A.D. 2023-Apr-22 00:00:00.0000, 5.689389897038918E+09, 3.145846589597893E+09, -2.669774437557027E+08,
2460063.500000000, A.D. 2023-Apr-29 00:00:00.0000, 5.688166244427045E+09, 3.148274595690449E+09, -2.670651988669680E+08,
2460070.500000000, A.D. 2023-May-06 00:00:00.0000, 5.686941520068121E+09, 3.150702015684768E+09, -2.671529054401008E+08,
2460077.500000000, A.D. 2023-May-13 00:00:00.0000, 5.685715724318605E+09, 3.153128851103714E+09, -2.672405634032439E+08,
2460084.500000000, A.D. 2023-May-20 00:00:00.0000, 5.684488857138837E+09, 3.155555103349517E+09, -2.673281726789147E+08,
2460091.500000000, A.D. 2023-May-27 00:00:00.0000, 5.683260918044197E+09, 3.157980773691871E+09, -2.674157331742948E+08,
2460098.500000000, A.D. 2023-Jun-03 00:00:00.0000, 5.682031906049891E+09, 3.160405863177874E+09, -2.675032447767924E+08,
2460105.500000000, A.D. 2023-Jun-10 00:00:00.0000, 5.680801819633123E+09, 3.162830372450135E+09, -2.675907073584565E+08,
2460112.500000000, A.D. 2023-Jun-17 00:00:00.0000, 5.679570656801702E+09, 3.165254301412983E+09, -2.676781208026026E+08,
2460119.500000000, A.D. 2023-Jun-24 00:00:00.0000, 5.678338415589075E+09, 3.167677648802454E+09, -2.677654850777069E+08,
2460126.500000000, A.D. 2023-Jul-01 00:00:00.0000, 5.677105095228938E+09, 3.170100412488222E+09, -2.678528003143313E+08,
2460133.500000000, A.D. 2023-Jul-08 00:00:00.0000, 5.675870696335406E+09, 3.172522591329573E+09, -2.679400666645248E+08,
2460140.500000000, A.D. 2023-Jul-15 00:00:00.0000, 5.674635218812023E+09, 3.174944185755674E+09, -2.680272840579680E+08,
2460147.500000000, A.D. 2023-Jul-22 00:00:00.0000, 5.673398661010983E+09, 3.177365196035819E+09, -2.681144522624903E+08,
$$EOE